[{"OBJECT_NAME":"TEN-KOH","OBJECT_ID":"2018-084G","EPOCH":"2026-03-09T23:23:52.653408","MEAN_MOTION":15.02465351,"ECCENTRICITY":0.0011972,"INCLINATION":98.0798,"RA_OF_ASC_NODE":257.1735,"ARG_OF_PERICENTER":91.8355,"MEAN_ANOMALY":268.424,"EPHEMERIS_TYPE":0,"CLASSIFICATION_TYPE":"U","NORAD_CAT_ID":43677,"ELEMENT_SET_NO":999,"REV_AT_EPOCH":40126,"BSTAR":0.00025918134,"MEAN_MOTION_DOT":3.377e-5,"MEAN_MOTION_DDOT":0},{"OBJECT_NAME":"STARLINK-34389","OBJECT_ID":"2025-126H","EPOCH":"2026-03-09T07:09:09.980352","MEAN_MOTION":14.98333821,"ECCENTRICITY":0.00026918,"INCLINATION":70.0032,"RA_OF_ASC_NODE":35.4241,"ARG_OF_PERICENTER":269.3836,"MEAN_ANOMALY":90.7015,"EPHEMERIS_TYPE":0,"CLASSIFICATION_TYPE":"U","NORAD_CAT_ID":64351,"ELEMENT_SET_NO":999,"REV_AT_EPOCH":4062,"BSTAR":0.00041670904,"MEAN_MOTION_DOT":4.883e-5,"MEAN_MOTION_DDOT":0}]
